"1 47704U 21015F   22077.21616489  .00021456  00000+0  77570-3 0  9992",
"2 47704  97.4233 154.5704 0008646  39.8145 320.3728 15.28432258 58280",
"1 47705U 21015G   22076.69242397  .00024444  00000+0  88319-3 0  9990",
"2 47705  97.4232 154.0456 0008654  40.9573 319.2315 15.28426013 58221",
"1 47706U 21015H   22076.75411458  .00024392  00000+0  87950-3 0  9996",
"2 47706  97.4233 154.1156 0008635  40.8797 319.3089 15.28494056 58239",
"1 47707U 21015J   22076.76507634  .00024383  00000+0  87965-3 0  9996",
"2 47707  97.4234 154.0996 0008594  40.5044 319.6834 15.28476597 58239",
"1 47708U 21015K   22077.18803371  .00022301  00000+0  79719-3 0  9997",
"2 47708  97.4228 154.5922 0008496  39.7069 320.4791 15.28796144 58308",
"1 47709U 21015L   22076.78664080  .00022710  00000+0  80885-3 0  9995",
"2 47709  97.4231 154.2173 0008461  40.8813 319.3060 15.28913201 58165",
"1 47710U 21015M   22076.77039823  .00027042  00000+0  95465-3 0  9990",
"2 47710  97.4231 154.2377 0008251  40.2527 319.9322 15.29168729 58240",
"1 47711U 21015N   22077.19574011  .00025085  00000+0  87490-3 0  9995",
"2 47711  97.4230 154.7378 0008113  39.2954 320.8874 15.29580866 58316",
"1 47712U 21015P   22076.78005443  .00023112  00000+0  82090-3 0  9998",
"2 47712  97.4229 154.2225 0008459  41.1223 319.0653 15.28999798 58249",
"1 47714U 21015Q   22077.27231770  .00024582  00000+0  86083-3 0  9997",
"2 47714  97.4233 154.7920 0008172  38.8464 321.3362 15.29452786 58240",
"1 47715U 21015R   22076.78768353  .00022924  00000+0  81481-3 0  9990",
"2 47715  97.4246 154.2448 0008322  40.1875 319.9979 15.28978415 58242",
"1 48626U 21006ES  22077.14631285  .00013588  00000+0  65468-3 0  9999",
"2 48626  97.2212 129.4436 0013959 211.0427 148.9985 15.18759666 63528",
"1 48627U 21006ET  22077.14261574  .00013314  00000+0  64042-3 0  9994",
"2 48627  97.2212 129.4477 0013893 211.0634 148.9781 15.18823641 63520",
"1 48628U 21006EU  22076.69658291  .00014336  00000+0  69337-3 0  9997",
"2 48628  97.2211 128.9855 0014007 213.1679 146.8679 15.18613750 63457",
"1 48629U 21006EV  22076.63438282  .00014437  00000+0  69923-3 0  9991",
"2 48629  97.2212 128.9181 0014033 213.6941 146.3403 15.18564568 63448",
"1 48630U 21006EW  22076.90549273  .00013071  00000+0  63467-3 0  9996",
"2 48630  97.2211 129.1618 0014182 212.4367 147.5997 15.18495810 63489",
"1 48631U 21006EX  22076.91150520  .00012548  00000+0  61057-3 0  9992",
"2 48631  97.2212 129.1560 0014221 212.5411 147.4948 15.18432134 63487",
"1 48632U 21006EY  22076.92274603  .00012336  00000+0  60166-3 0  9998",
"2 48632  97.2213 129.1409 0014344 212.3859 147.6497 15.18351929 63484",
"1 48633U 21006EZ  22076.67180072  .00013180  00000+0  64444-3 0  9998",
"2 48633  97.2216 128.8716 0014505 213.6174 146.4142 15.18246748 63440",
"1 48634U 21006FA  22076.68812168  .00013691  00000+0  67190-3 0  9996",
"2 48634  97.2210 128.8540 0014741 214.2876 145.7408 15.18108356 63447",
"1 48635U 21006FB  22076.69912589  .00013154  00000+0  64727-3 0  9993",
"2 48635  97.2211 128.8405 0014935 214.3797 145.6473 15.18020327 63449",
"1 48636U 21006FC  22076.65399451  .00011756  00000+0  58208-3 0  9990",
"2 48636  97.2214 128.7515 0015119 214.5851 145.4401 15.17828020 63435",
"1 48637U 21006FD  22077.19952985  .00010302  00000+0  51228-3 0  9999",
"2 48637  97.2209 129.2304 0015442 212.7825 147.2453 15.17708229 63516",
"1 48882U 21059D   22076.92481886  .00009627  00000+0  52287-3 0  9990",
"2 48882  97.5382 207.2950 0008833  67.6202 292.5965 15.14693119 40086",
"1 48883U 21059E   22077.24439499  .00007267  00000+0  40557-3 0  9995",
"2 48883  97.5402 207.5029 0009693  62.0719 298.1493 15.13808743 40120",
"1 48884U 21059F   22076.91379438  .00006765  00000+0  37847-3 0  9995",
"2 48884  97.5402 207.1803 0009434  67.1109 293.1117 15.13746433 40078",
"1 48886U 21059H   22076.90861147  .00007016  00000+0  39221-3 0  9997",
"2 48886  97.5400 207.1860 0009437  66.8528 293.3696 15.13762977 40070",
"1 48887U 21059J   22076.59482547  .00010650  00000+0  57822-3 0  9991",
"2 48887  97.5383 206.9669 0008996  69.3161 290.9034 15.14679869 40038",
"1 48888U 21059K   22076.82877183  .00006966  00000+0  38794-3 0  9994",
"2 48888  97.5405 207.1405 0009696  64.8624 295.3612 15.13901337 40068",
"1 48889U 21059L   22076.90285247  .00010233  00000+0  55352-3 0  9999",
"2 48889  97.5407 207.3928 0009522  67.4820 292.7419 15.14817030 40083",
"1 48890U 21059M   22076.92545591  .00006939  00000+0  38682-3 0  9999",
"2 48890  97.5396 207.1460 0009575  67.6873 292.5372 15.13867463 40078",
"1 48891U 21059N   22076.90242355  .00010093  00000+0  54625-3 0  9991",
"2 48891  97.5410 207.3914 0009533  67.0841 293.1396 15.14802959 40089",
"1 48893U 21059Q   22076.81949570  .00006362  00000+0  35449-3 0  9993",
"2 48893  97.5424 207.2186 0010243  67.2347 292.9966 15.13910533 40064",
"1 48894U 21059R   22076.94409789  .00006618  00000+0  36734-3 0  9993",
"2 48894  97.5425 207.3594 0010024  66.3925 293.8358 15.14036145 40085",
"1 48895U 21059S   22076.88346506  .00006221  00000+0  34646-3 0  9994",
"2 48895  97.5421 207.2755 0010385  66.5213 293.7108 15.13939008 40072",
"1 48896U 21059T   22077.18997765  .00006530  00000+0  36623-3 0  9998",
"2 48896  97.5396 207.4067 0009634  56.9991 303.2165 15.13670075 40114",
"1 48897U 21059U   22076.81410842  .00006669  00000+0  37061-3 0  9994",
"2 48897  97.5419 207.2060 0010426  65.2554 294.9761 15.13987935 40069",
"1 48899U 21059W   22077.31026620  .00007499  00000+0  41311-3 0  9994",
"2 48899  97.5423 207.7916 0010315  61.8359 298.3913 15.14258123 40140",
"1 48904U 21059AB  22076.81176147  .00006715  00000+0  36748-3 0  9993",
"2 48904  97.5432 207.4020 0011553  63.1776 297.0636 15.14523646 40078",
"1 48932U 21059BF  22076.90929817  .00017604  00000+0  84553-3 0  9990",
"2 48932  97.5319 208.1988 0015978  60.5752 299.7074 15.18792833 40158",
"1 48933U 21059BG  22077.28844237  .00018489  00000+0  87993-3 0  9998",
"2 48933  97.5321 208.6026 0015931  59.2479 301.0321 15.19101134 40218",
"1 48934U 21059BH  22076.92440167  .00016656  00000+0  80580-3 0  9992",
"2 48934  97.5321 208.1819 0016090  60.3757 299.9078 15.18552167 40155",
"1 48935U 21059BJ  22076.82624113  .00017723  00000+0  84303-3 0  9990",
"2 48935  97.5315 208.1384 0015890  60.8253 299.4569 15.19127984 40144",
"1 48936U 21059BK  22076.86807766  .00015071  00000+0  73346-3 0  9991",
"2 48936  97.5327 208.1132 0016219  61.0816 299.2043 15.18365654 40145",
"1 48937U 21059BL  22076.91381962  .00017215  00000+0  82918-3 0  9990",
"2 48937  97.5318 208.1875 0016052  60.6273 299.6562 15.18698031 40156",
"1 48939U 21059BN  22077.29790007  .00017910  00000+0  85607-3 0  9998",
"2 48939  97.5322 208.5934 0016010  58.8592 301.4210 15.18956248 40216",
"1 48940U 21059BP  22077.29273171  .00018156  00000+0  86589-3 0  9991",
"2 48940  97.5322 208.6001 0015897  59.0998 301.1796 15.19031918 40214",
"1 48945U 21059BU  22077.30680782  .00017497  00000+0  84019-3 0  9991",
"2 48945  97.5323 208.5939 0015876  58.9813 301.2977 15.18803035 40218",
"1 48946U 21059BV  22076.86068278  .00015234  00000+0  73859-3 0  9999",
"2 48946  97.5323 208.1157 0016243  61.0864 299.1997 15.18494873 40142",
"1 48947U 21059BW  22076.82923388  .00017555  00000+0  83714-3 0  9997",
"2 48947  97.5323 208.1413 0015958  60.7776 299.5052 15.19043137 40148",
"1 48949U 21059BY  22076.86279479  .00015983  00000+0  77439-3 0  9998",
"2 48949  97.5330 208.1231 0016051  60.5722 299.7111 15.18508516 40144",
];

export default data;
